SL-14 R/B               
1 16792U 86046B   26077.69817024  .00000442  00000+0  48106-4 0  9990
2 16792  82.4787  71.6670 0022651 194.5186 165.5383 14.85599150127749
SL-14 R/B               
1 16882U 86055B   26077.57568869  .00000415  00000+0  45024-4 0  9993
2 16882  82.5184 118.3209 0017571 305.5998 206.4639 14.85650621120684
AJISAI (EGS)            
1 16908U 86061A   26077.86039020 -.00000105  00000+0 -55544-4 0  9999
2 16908  50.0091  65.1464 0011302 310.6550  73.4341 12.44515693469140
SL-14 R/B               
1 17567U 87024B   26077.72828414  .00000436  00000+0  46892-4 0  9990
2 17567  82.5243  84.2656 0017032 227.5144 132.4634 14.86140696 89477
COSMOS 1833             
1 17589U 87027A   26077.56741051 -.00000220  00000+0 -91900-4 0  9993
2 17589  70.9200 307.3605 0023809 201.8075 158.2035 14.13052047 11574
SL-16 R/B               
1 17590U 87027B   26077.86826289 -.00000066  00000+0 -91979-5 0  9990
2 17590  70.9992 257.1514 0003085 121.6225 238.5200 14.17166793 16642
SL-14 R/B               
1 17912U 87038B   26077.86263520  .00000409  00000+0  44568-4 0  9993
2 17912  82.4986 288.1648 0020377 131.3809 228.9164 14.85377237 80591
COSMOS 1844             
1 17973U 87041A   26077.87601330  .00000020  00000+0  35448-4 0  9996
2 17973  70.9008  14.7994 0030486   4.4665 355.6722 14.14551263  4885
SL-14 R/B               
1 18153U 87055B   26077.70320134  .00000433  00000+0  47076-4 0  9992
2 18153  82.5025 340.5385 0020323 348.3009  11.7732 14.85639113 71276
COSMOS 1867             
1 18187U 87060A   26077.87257570 -.00000050  00000+0  18975-4 0  9998
2 18187  65.0096 280.9881 0014621 279.1652  80.7778 14.31504376 21256
SL-14 R/B               
1 18749U 88001B   26077.83387556  .00000480  00000+0  52673-4 0  9991
2 18749  82.5160 186.7620 0017465 203.7956 156.2455 14.85538344 43389
COSMOS 1933             
1 18958U 88020A   26077.88663817  .00003540  00000+0  17234-3 0  9999
2 18958  82.5102 241.8098 0004605 151.8083 208.3401 15.18067329 51628
