CCSDS_OMM_VERS = 2.0
CREATION_DATE  = 
ORIGINATOR     = 

OBJECT_NAME    = SL-14 R/B
OBJECT_ID      = 1986-046B
CENTER_NAME    = EARTH
REF_FRAME      = TEME
TIME_SYSTEM    = UTC
MEAN_ELEMENT_THEORY = SGP/SGP4

EPOCH          = 2026-03-18T16:45:21.908736
MEAN_MOTION    = 14.85599150
ECCENTRICITY   = .0022651
INCLINATION    = 82.4787
RA_OF_ASC_NODE = 71.6670
ARG_OF_PERICENTER = 194.5186
MEAN_ANOMALY   = 165.5383

EPHEMERIS_TYPE = 0
CLASSIFICATION_TYPE = U
NORAD_CAT_ID   = 16792
ELEMENT_SET_NO = 999
REV_AT_EPOCH   = 12774
BSTAR          = .48106E-4
MEAN_MOTION_DOT = .442E-5
MEAN_MOTION_DDOT = 0

CCSDS_OMM_VERS = 2.0
CREATION_DATE  = 
ORIGINATOR     = 

OBJECT_NAME    = SL-14 R/B
OBJECT_ID      = 1986-055B
CENTER_NAME    = EARTH
REF_FRAME      = TEME
TIME_SYSTEM    = UTC
MEAN_ELEMENT_THEORY = SGP/SGP4

EPOCH          = 2026-03-18T13:48:59.502816
MEAN_MOTION    = 14.85650621
ECCENTRICITY   = .00175713
INCLINATION    = 82.5184
RA_OF_ASC_NODE = 118.3209
ARG_OF_PERICENTER = 305.5998
MEAN_ANOMALY   = 206.4639

EPHEMERIS_TYPE = 0
CLASSIFICATION_TYPE = U
NORAD_CAT_ID   = 16882
ELEMENT_SET_NO = 999
REV_AT_EPOCH   = 12068
BSTAR          = .45023692E-4
MEAN_MOTION_DOT = .415E-5
MEAN_MOTION_DDOT = 0

CCSDS_OMM_VERS = 2.0
CREATION_DATE  = 
ORIGINATOR     = 

OBJECT_NAME    = AJISAI (EGS)
OBJECT_ID      = 1986-061A
CENTER_NAME    = EARTH
REF_FRAME      = TEME
TIME_SYSTEM    = UTC
MEAN_ELEMENT_THEORY = SGP/SGP4

EPOCH          = 2026-03-18T20:38:57.713280
MEAN_MOTION    = 12.44515693
ECCENTRICITY   = .0011302
INCLINATION    = 50.0091
RA_OF_ASC_NODE = 65.1464
ARG_OF_PERICENTER = 310.6550
MEAN_ANOMALY   = 73.4341

EPHEMERIS_TYPE = 0
CLASSIFICATION_TYPE = U
NORAD_CAT_ID   = 16908
ELEMENT_SET_NO = 999
REV_AT_EPOCH   = 46914
BSTAR          = -.55544E-4
MEAN_MOTION_DOT = -.105E-5
MEAN_MOTION_DDOT = 0

CCSDS_OMM_VERS = 2.0
CREATION_DATE  = 
ORIGINATOR     = 

OBJECT_NAME    = SL-14 R/B
OBJECT_ID      = 1987-024B
CENTER_NAME    = EARTH
REF_FRAME      = TEME
TIME_SYSTEM    = UTC
MEAN_ELEMENT_THEORY = SGP/SGP4

EPOCH          = 2026-03-18T17:28:43.749696
MEAN_MOTION    = 14.86140696
ECCENTRICITY   = .0017032
INCLINATION    = 82.5243
RA_OF_ASC_NODE = 84.2656
ARG_OF_PERICENTER = 227.5144
MEAN_ANOMALY   = 132.4634

EPHEMERIS_TYPE = 0
CLASSIFICATION_TYPE = U
NORAD_CAT_ID   = 17567
ELEMENT_SET_NO = 999
REV_AT_EPOCH   = 8947
BSTAR          = .46892E-4
MEAN_MOTION_DOT = .436E-5
MEAN_MOTION_DDOT = 0

CCSDS_OMM_VERS = 2.0
CREATION_DATE  = 
ORIGINATOR     = 

OBJECT_NAME    = COSMOS 1833
OBJECT_ID      = 1987-027A
CENTER_NAME    = EARTH
REF_FRAME      = TEME
TIME_SYSTEM    = UTC
MEAN_ELEMENT_THEORY = SGP/SGP4

EPOCH          = 2026-03-18T13:37:04.268064
MEAN_MOTION    = 14.13052047
ECCENTRICITY   = .00238094
INCLINATION    = 70.9200
RA_OF_ASC_NODE = 307.3605
ARG_OF_PERICENTER = 201.8075
MEAN_ANOMALY   = 158.2035

EPHEMERIS_TYPE = 0
CLASSIFICATION_TYPE = U
NORAD_CAT_ID   = 17589
ELEMENT_SET_NO = 999
REV_AT_EPOCH   = 1157
BSTAR          = -.9189983E-4
MEAN_MOTION_DOT = -.22E-5
MEAN_MOTION_DDOT = 0

CCSDS_OMM_VERS = 2.0
CREATION_DATE  = 
ORIGINATOR     = 

OBJECT_NAME    = SL-16 R/B
OBJECT_ID      = 1987-027B
CENTER_NAME    = EARTH
REF_FRAME      = TEME
TIME_SYSTEM    = UTC
MEAN_ELEMENT_THEORY = SGP/SGP4

EPOCH          = 2026-03-18T20:50:17.913696
MEAN_MOTION    = 14.17166793
ECCENTRICITY   = .0003085
INCLINATION    = 70.9992
RA_OF_ASC_NODE = 257.1514
ARG_OF_PERICENTER = 121.6225
MEAN_ANOMALY   = 238.5200

EPHEMERIS_TYPE = 0
CLASSIFICATION_TYPE = U
NORAD_CAT_ID   = 17590
ELEMENT_SET_NO = 999
REV_AT_EPOCH   = 1664
BSTAR          = -.91979E-5
MEAN_MOTION_DOT = -.66E-6
MEAN_MOTION_DDOT = 0

CCSDS_OMM_VERS = 2.0
CREATION_DATE  = 
ORIGINATOR     = 

OBJECT_NAME    = SL-14 R/B
OBJECT_ID      = 1987-038B
CENTER_NAME    = EARTH
REF_FRAME      = TEME
TIME_SYSTEM    = UTC
MEAN_ELEMENT_THEORY = SGP/SGP4

EPOCH          = 2026-03-18T20:42:11.681280
MEAN_MOTION    = 14.85377237
ECCENTRICITY   = .0020377
INCLINATION    = 82.4986
RA_OF_ASC_NODE = 288.1648
ARG_OF_PERICENTER = 131.3809
MEAN_ANOMALY   = 228.9164

EPHEMERIS_TYPE = 0
CLASSIFICATION_TYPE = U
NORAD_CAT_ID   = 17912
ELEMENT_SET_NO = 999
REV_AT_EPOCH   = 8059
BSTAR          = .44568E-4
MEAN_MOTION_DOT = .409E-5
MEAN_MOTION_DDOT = 0

CCSDS_OMM_VERS = 2.0
CREATION_DATE  = 
ORIGINATOR     = 

OBJECT_NAME    = COSMOS 1844
OBJECT_ID      = 1987-041A
CENTER_NAME    = EARTH
REF_FRAME      = TEME
TIME_SYSTEM    = UTC
MEAN_ELEMENT_THEORY = SGP/SGP4

EPOCH          = 2026-03-18T21:01:27.549120
MEAN_MOTION    = 14.14551263
ECCENTRICITY   = .0030486
INCLINATION    = 70.9008
RA_OF_ASC_NODE = 14.7994
ARG_OF_PERICENTER = 4.4665
MEAN_ANOMALY   = 355.6722

EPHEMERIS_TYPE = 0
CLASSIFICATION_TYPE = U
NORAD_CAT_ID   = 17973
ELEMENT_SET_NO = 999
REV_AT_EPOCH   = 488
BSTAR          = .35448E-4
MEAN_MOTION_DOT = .2E-6
MEAN_MOTION_DDOT = 0

CCSDS_OMM_VERS = 2.0
CREATION_DATE  = 
ORIGINATOR     = 

OBJECT_NAME    = SL-14 R/B
OBJECT_ID      = 1987-055B
CENTER_NAME    = EARTH
REF_FRAME      = TEME
TIME_SYSTEM    = UTC
MEAN_ELEMENT_THEORY = SGP/SGP4

EPOCH          = 2026-03-18T16:52:36.595776
MEAN_MOTION    = 14.85639113
ECCENTRICITY   = .0020323
INCLINATION    = 82.5025
RA_OF_ASC_NODE = 340.5385
ARG_OF_PERICENTER = 348.3009
MEAN_ANOMALY   = 11.7732

EPHEMERIS_TYPE = 0
CLASSIFICATION_TYPE = U
NORAD_CAT_ID   = 18153
ELEMENT_SET_NO = 999
REV_AT_EPOCH   = 7127
BSTAR          = .47076E-4
MEAN_MOTION_DOT = .433E-5
MEAN_MOTION_DDOT = 0

CCSDS_OMM_VERS = 2.0
CREATION_DATE  = 
ORIGINATOR     = 

OBJECT_NAME    = COSMOS 1867
OBJECT_ID      = 1987-060A
CENTER_NAME    = EARTH
REF_FRAME      = TEME
TIME_SYSTEM    = UTC
MEAN_ELEMENT_THEORY = SGP/SGP4

EPOCH          = 2026-03-18T20:56:30.540480
MEAN_MOTION    = 14.31504376
ECCENTRICITY   = .0014621
INCLINATION    = 65.0096
RA_OF_ASC_NODE = 280.9881
ARG_OF_PERICENTER = 279.1652
MEAN_ANOMALY   = 80.7778

EPHEMERIS_TYPE = 0
CLASSIFICATION_TYPE = U
NORAD_CAT_ID   = 18187
ELEMENT_SET_NO = 999
REV_AT_EPOCH   = 2125
BSTAR          = .18975E-4
MEAN_MOTION_DOT = -.5E-6
MEAN_MOTION_DDOT = 0

CCSDS_OMM_VERS = 2.0
CREATION_DATE  = 
ORIGINATOR     = 

OBJECT_NAME    = SL-14 R/B
OBJECT_ID      = 1988-001B
CENTER_NAME    = EARTH
REF_FRAME      = TEME
TIME_SYSTEM    = UTC
MEAN_ELEMENT_THEORY = SGP/SGP4

EPOCH          = 2026-03-18T20:00:46.848384
MEAN_MOTION    = 14.85538344
ECCENTRICITY   = .0017465
INCLINATION    = 82.5160
RA_OF_ASC_NODE = 186.7620
ARG_OF_PERICENTER = 203.7956
MEAN_ANOMALY   = 156.2455

EPHEMERIS_TYPE = 0
CLASSIFICATION_TYPE = U
NORAD_CAT_ID   = 18749
ELEMENT_SET_NO = 999
REV_AT_EPOCH   = 4338
BSTAR          = .52673E-4
MEAN_MOTION_DOT = .48E-5
MEAN_MOTION_DDOT = 0

CCSDS_OMM_VERS = 2.0
CREATION_DATE  = 
ORIGINATOR     = 

OBJECT_NAME    = COSMOS 1933
OBJECT_ID      = 1988-020A
CENTER_NAME    = EARTH
REF_FRAME      = TEME
TIME_SYSTEM    = UTC
MEAN_ELEMENT_THEORY = SGP/SGP4

EPOCH          = 2026-03-18T21:16:45.537888
MEAN_MOTION    = 15.18067329
ECCENTRICITY   = .0004605
INCLINATION    = 82.5102
RA_OF_ASC_NODE = 241.8098
ARG_OF_PERICENTER = 151.8083
MEAN_ANOMALY   = 208.3401

EPHEMERIS_TYPE = 0
CLASSIFICATION_TYPE = U
NORAD_CAT_ID   = 18958
ELEMENT_SET_NO = 999
REV_AT_EPOCH   = 5162
BSTAR          = .17234E-3
MEAN_MOTION_DOT = .354E-4
MEAN_MOTION_DDOT = 0

